#aV2010  3 27  0  0   .00000000      96 DD+AD WGS84 FIT  NGA
## 1576 518400.00000000   900.00000000 55282  .0000000000000
+   30     1  2  3  4  5  6  7  8 10 11 12 13 14 15 16 17 18
+         19 20 21 22 23 24 26 27 28 29 30 31 32  0  0  0  0
+          0  0  0  0  0  0  0  0  0  0  0  0  0  0  0  0  0
+          0  0  0  0  0  0  0  0  0  0  0  0  0  0  0  0  0
+          0  0  0  0  0  0  0  0  0  0  0  0  0  0  0  0  0
++         0  0  0  0  0  0  0  0  0  0  0  0  0  0  0  0  0
++         0  0  0  0  0  0  0  0  0  0  0  0  0  0  0  0  0
++         0  0  0  0  0  0  0  0  0  0  0  0  0  0  0  0  0
++         0  0  0  0  0  0  0  0  0  0  0  0  0  0  0  0  0
++         0  0  0  0  0  0  0  0  0  0  0  0  0  0  0  0  0
%c cc cc ccc ccc cccc cccc cccc cccc ccccc ccccc ccccc ccccc
%c cc cc ccc ccc cccc cccc cccc cccc ccccc ccccc ccccc ccccc
%f  0.0000000  0.000000000  0.00000000000  0.000000000000000
%f  0.0000000  0.000000000  0.00000000000  0.000000000000000
%i    0    0    0    0      0      0      0      0         0
%i    0    0    0    0      0      0      0      0         0
/*      NGA, ST. LOUIS,MO.                                  
/*   EPHEMERIS COMPUTED FROM  3 DAYS OF DATA                
/* CCCCCCCCCCCCCCCCCCCCCCCCCCCCCCCCCCCCCCCCCCCCCCCCCCCCCCCCC
/* CCCCCCCCCCCCCCCCCCCCCCCCCCCCCCCCCCCCCCCCCCCCCCCCCCCCCCCCC
*  2010  3 27  1  0   .00000000                                                 
P  1  16849.351138   4055.781411  20070.990517   -102.802399                    
V  1   9059.595083  24027.159246 -12255.156723      -.040283                    
P  2  -7154.093794  14552.031725  20926.448086    240.364141                    
V  2 -26544.385637  -3973.711418  -6746.338307       .038295                    
P  3   8021.452836 -24187.429133  -7179.704782    533.612712                    
V  3   7804.506584  -5600.214004  29379.245764       .052606                    
P  4 -21891.361936   7014.979223  13439.921904     45.952164                    
V  4 -16777.621744  -4755.698942 -24176.349128       .087375                    
P  5   -195.906944  23102.724846  13004.754811     -2.630962                    
V  5  -8617.926450 -14369.837739  25439.003714       .008235                    
P  6  12683.762860 -22962.630844  -3496.947206    680.590429                    
V  6   5734.361200  -1749.746922  30823.937739      -.080716                    
P  7 -25319.220230  -6712.399444   4880.776159      1.188148                    
V  7   6421.737118  -1470.442311  31079.447688      -.004326                    
P  8 -25723.360067    -63.095502  -7657.300849      4.431225                    
V  8  -9097.433801  -3128.082029  30145.501241       .003467                    
P 10  -6814.202220  17868.313683  18095.728075    -38.792636                    
V 10 -10299.584028 -21214.561951  17240.359673      -.009457                    
P 11 -15839.238858 -12698.346082 -17549.449989    -52.909045                    
V 11  21590.552802  -4650.841691 -15994.118093      -.022208                    
P 12  12022.976315  23548.908600   3324.910693   -133.951561                    
V 12   -648.849655   4722.259574 -31485.421760       .045283                    
P 13 -14691.948958  -4516.189054  21526.380134    305.804381                    
V 13  17853.970384 -21009.043584   7713.131362      -.002767                    
P 14  20313.703317 -12869.883635 -11005.264106     26.253437                    
V 14  -7705.075198  12053.037033 -28092.262545       .041484                    
P 15  -2766.137412  21655.714754 -15030.856204   -293.919726                    
V 15 -13218.252907  14077.415380  22802.450592       .042314                    
P 16   5487.045914 -19094.684459  17540.541418    -55.224314                    
V 16   9545.159754  20172.786730  19290.052631      -.039212                    
P 17 -20215.212177  13064.930238 -10891.804782    139.921677                    
V 17   6721.161836 -12619.118574 -27573.632424       .028205                    
P 18  17446.516141  10573.092851 -16940.785729     57.824868                    
V 18   6079.868299  21176.061493  18810.924546       .024788                    
P 19   3073.055306 -20592.707928 -16280.215094    -24.009165                    
V 19  15492.933232 -14136.087235  21052.693950      -.024542                    
P 20 -14376.552874 -21583.894984   5729.878098     58.811538                    
V 20     21.080459  -8201.376905 -30057.189155      -.006978                    
P 21  26527.779677   4465.959950    876.946204    -49.345798                    
V 21  -1163.971153   2998.205279  30700.483144      -.025353                    
P 22  15482.697917  -3242.313750 -21182.246491    175.977899                    
V 22   9493.323377  25663.919391   2904.647032      -.010706                    
P 23  -8212.993891 -13361.854218  21361.909579    376.188927                    
V 23  17247.915722 -21067.185040  -6837.463742      -.011553                    
P 24  25858.775003   5424.285764    988.294914    273.906380                    
V 24  -1746.052169   3106.342611  31627.893868       .033237                    
P 26  14138.235090   5956.246676 -22258.983326    -32.281917                    
V 26 -17592.543276  20289.565595  -5456.980344      -.042184                    
P 27   8074.366714  14277.189565 -20237.144405    137.636800                    
V 27 -27174.051993  -1170.000970 -11162.176802       .033774                    
P 28 -15542.916372   -160.660801 -21104.643942    -19.751138                    
V 28  -9383.014496 -26219.679174   6671.446009       .007624                    
P 29  14140.062850   6548.032683  21600.698757    107.952340                    
V 29 -16851.187998  21364.732422   4611.215704       .027021                    
P 30  16945.387117  16456.158610  11812.568792    228.164064                    
V 30   4282.777581  15217.908780 -26419.434344       .034427                    
P 31  19846.548738  -8250.741226  15930.206373    -45.417021                    
V 31  19379.263355   4000.382602 -22201.472289       .018885                    
P 32  -6879.841653 -25751.131076  -1810.522855     65.408391                    
V 32   3285.889376   1781.429496 -31402.886854      -.085828                    
EOF
